{"type":"FeatureCollection","features":[{"type":"Feature","geometry":{"type":"Polygon","coordinates":[[[-0.28834,51.69843],[-0.28834,51.69843],[-0.29102,51.69744],[-0.29355,51.69623],[-0.29586,51.69481],[-0.29786,51.69319],[-0.29947,51.69139],[-0.30061,51.68941],[-0.30122,51.68728],[-0.30133,51.685],[-0.30099,51.68259],[-0.30023,51.68007],[-0.29909,51.67746],[-0.29763,51.67476],[-0.29588,51.672],[-0.29388,51.66919],[-0.29167,51.66634],[-0.28931,51.66348],[-0.28682,51.66062],[-0.28425,51.65777],[-0.28164,51.65496],[-0.27905,51.65219],[-0.27649,51.64948],[-0.27402,51.64684],[-0.27162,51.64428],[-0.2693,51.64178],[-0.26705,51.63934],[-0.26485,51.63696],[-0.26271,51.63463],[-0.26061,51.63234],[-0.25856,51.63008],[-0.25653,51.62787],[-0.25454,51.62568],[-0.25257,51.62351],[-0.25061,51.62136],[-0.24866,51.61922],[-0.24672,51.61709],[-0.24477,51.61496],[-0.24281,51.61282],[-0.24083,51.61068],[-0.23883,51.60852],[-0.23681,51.60633],[-0.23474,51.60413],[-0.23263,51.60189],[-0.23048,51.59961],[-0.22827,51.5973],[-0.226,51.59493],[-0.22366,51.59251],[-0.22125,51.59004],[-0.21877,51.5875],[-0.21624,51.58491],[-0.21368,51.58228],[-0.21112,51.5796],[-0.20857,51.57689],[-0.20606,51.57414],[-0.20361,51.57137],[-0.20124,51.56858],[-0.19897,51.56578],[-0.19682,51.56297],[-0.19482,51.56016],[-0.19298,51.55736],[-0.19132,51.55456],[-0.18988,51.55178],[-0.18866,51.54902],[-0.18769,51.54629],[-0.187,51.54359],[-0.18659,51.54093],[-0.18648,51.53831],[-0.18664,51.53574],[-0.18707,51.53321],[-0.18776,51.53072],[-0.18868,51.52828],[-0.18983,51.52588],[-0.19119,51.52354],[-0.19276,51.52124],[-0.19451,51.51898],[-0.19644,51.51678],[-0.19853,51.51463],[-0.20077,51.51254],[-0.20314,51.51049],[-0.20564,51.5085],[-0.20825,51.50657],[-0.21096,51.50469],[-0.21375,51.50286],[-0.21661,51.5011],[-0.21953,51.49939],[-0.2225,51.49774],[-0.2255,51.49616],[-0.22852,51.49463],[-0.23156,51.49317],[-0.23462,51.49175],[-0.2377,51.49039],[-0.24079,51.48908],[-0.24389,51.48781],[-0.247,51.48658],[-0.25012,51.4854],[-0.25325,51.48424],[-0.25639,51.48312],[-0.25953,51.48203],[-0.26267,51.48097],[-0.26582,51.47992],[-0.26896,51.4789],[-0.2721,51.47789],[-0.27524,51.4769],[-0.27838,51.47591],[-0.2815,51.47493],[-0.28462,51.47395],[-0.28773,51.47298],[-0.29083,51.472],[-0.29391,51.47101],[-0.29698,51.47001],[-0.30003,51.469],[-0.30307,51.46798],[-0.30608,51.46693],[-0.30908,51.46587],[-0.31206,51.46478],[-0.31502,51.46366],[-0.31796,51.46252],[-0.32087,51.46134],[-0.32377,51.46013],[-0.32665,51.45889],[-0.3295,51.45761],[-0.33234,51.45629],[-0.33515,51.45492],[-0.33793,51.45351],[-0.3407,51.45206],[-0.34344,51.45055],[-0.34616,51.44899],[-0.34885,51.44738],[-0.35152,51.44571],[-0.35417,51.44398],[-0.35679,51.44219],[-0.35938,51.44033],[-0.36195,51.43841],[-0.36449,51.43642],[-0.367,51.43436],[-0.36949,51.43222],[-0.37195,51.43001],[-0.37439,51.42772],[-0.37679,51.42535],[-0.37917,51.4229],[-0.38151,51.42036],[-0.38383,51.41773],[-0.38611,51.41502],[-0.38835,51.41223],[-0.39052,51.40937],[-0.39261,51.40645],[-0.39461,51.40347],[-0.39651,51.40046],[-0.39829,51.39741],[-0.39994,51.39432],[-0.40144,51.39122],[-0.40279,51.38811],[-0.40396,51.385],[-0.40494,51.38189],[-0.40573,51.3788],[-0.4063,51.37572],[-0.40665,51.37268],[-0.40675,51.36967],[-0.4066,51.36671],[-0.40622,51.3638],[-0.4056,51.36094],[-0.40477,51.35814],[-0.40372,51.35539],[-0.40247,51.3527],[-0.40102,51.35008],[-0.39939,51.34753],[-0.39759,51.34504],[-0.39563,51.34263],[-0.39351,51.34029],[-0.39124,51.33804],[-0.38884,51.33586],[-0.38631,51.33378],[-0.38366,51.33178],[-0.3809,51.32987],[-0.37805,51.32806],[-0.37511,51.32634],[-0.37209,51.32473],[-0.369,51.32322],[-0.36584,51.32182],[-0.36264,51.32053],[-0.3594,51.31935],[-0.35612,51.31829],[-0.35282,51.31735],[-0.34951,51.31653],[-0.34619,51.31584],[-0.34288,51.31527],[-0.33959,51.31484],[-0.33631,51.31454],[-0.33308,51.31438],[-0.32988,51.31437],[-0.32673,51.31448],[-0.32362,51.31473],[-0.32054,51.31511],[-0.3175,51.31561],[-0.3145,51.31623],[-0.31153,51.31697],[-0.30859,51.31781],[-0.30569,51.31876],[-0.30281,51.3198],[-0.29995,51.32095],[-0.29713,51.32218],[-0.29432,51.3235],[-0.29154,51.32491],[-0.28878,51.32639],[-0.28604,51.32794],[-0.28332,51.32956],[-0.28061,51.33125],[-0.27791,51.33299],[-0.27523,51.33479],[-0.27255,51.33664],[-0.26989,51.33854],[-0.26723,51.34048],[-0.26458,51.34245],[-0.26193,51.34446],[-0.25928,51.34649],[-0.25664,51.34854],[-0.25399,51.35062],[-0.25134,51.35271],[-0.24869,51.3548],[-0.24603,51.35691],[-0.24336,51.35901],[-0.24069,51.3611],[-0.238,51.36319],[-0.2353,51.36527],[-0.23259,51.36733],[-0.22986,51.36936],[-0.22711,51.37137],[-0.22434,51.37334],[-0.22155,51.37528],[-0.21874,51.37718],[-0.21591,51.37903],[-0.21305,51.38084],[-0.21016,51.38258],[-0.20725,51.38427],[-0.2043,51.3859],[-0.20132,51.38746],[-0.19831,51.38894],[-0.19526,51.39035],[-0.19218,51.3917],[-0.18908,51.39298],[-0.18597,51.39421],[-0.18284,51.3954],[-0.17971,51.39656],[-0.17659,51.39769],[-0.17347,51.3988],[-0.17036,51.3999],[-0.16727,51.401],[-0.16421,51.4021],[-0.16118,51.40322],[-0.15819,51.40436],[-0.15525,51.40553],[-0.15235,51.40674],[-0.14951,51.408],[-0.14673,51.40931],[-0.14402,51.41069],[-0.14139,51.41214],[-0.13883,51.41366],[-0.13637,51.41528],[-0.13399,51.41699],[-0.13171,51.41881],[-0.12954,51.42073],[-0.12748,51.42278],[-0.12554,51.42496],[-0.12371,51.42727],[-0.12202,51.42973],[-0.12046,51.43234],[-0.119,51.43506],[-0.11762,51.43789],[-0.11631,51.44078],[-0.11503,51.44373],[-0.11377,51.4467],[-0.11251,51.44967],[-0.11122,51.45262],[-0.10987,51.45552],[-0.10846,51.45835],[-0.10694,51.46108],[-0.10531,51.46369],[-0.10356,51.46618],[-0.1017,51.46855],[-0.09972,51.4708],[-0.09763,51.47294],[-0.09543,51.47496],[-0.09314,51.47688],[-0.09074,51.47868],[-0.08824,51.48039],[-0.08565,51.48199],[-0.08297,51.48348],[-0.08021,51.48488],[-0.07736,51.48619],[-0.07443,51.4874],[-0.07142,51.48853],[-0.06837,51.48957],[-0.06537,51.49059],[-0.06252,51.49163],[-0.05994,51.49273],[-0.05771,51.49394],[-0.05595,51.49531],[-0.05476,51.49689],[-0.0542,51.49871],[-0.05423,51.50077],[-0.05475,51.50306],[-0.05565,51.50555],[-0.05684,51.50823],[-0.05823,51.51109],[-0.0597,51.5141],[-0.06117,51.51725],[-0.06256,51.52053],[-0.06386,51.52388],[-0.06511,51.52729],[-0.06635,51.5307],[-0.0676,51.53409],[-0.06889,51.53741],[-0.07027,51.54062],[-0.07177,51.54368],[-0.0734,51.54657],[-0.07522,51.54923],[-0.07723,51.55165],[-0.07941,51.55385],[-0.08175,51.55586],[-0.08423,51.55771],[-0.08681,51.55943],[-0.08948,51.56105],[-0.09222,51.5626],[-0.095,51.5641],[-0.0978,51.56558],[-0.10059,51.56708],[-0.10336,51.56863],[-0.10609,51.57024],[-0.10874,51.57196],[-0.1113,51.57381],[-0.11213,51.57559],[-0.11355,51.57795],[-0.11466,51.58083],[-0.11591,51.58241],[-0.1169,51.58406],[-0.11837,51.58503],[-0.1212,51.58649],[-0.12356,51.5886],[-0.12508,51.59106],[-0.12715,51.5942],[-0.12937,51.59747],[-0.1313,51.59983],[-0.13331,51.60244],[-0.13497,51.60546],[-0.1366,51.6085],[-0.13822,51.61154],[-0.13984,51.61456],[-0.14147,51.61756],[-0.14311,51.62052],[-0.14478,51.62342],[-0.14647,51.62626],[-0.14821,51.62902],[-0.14999,51.63168],[-0.15184,51.63424],[-0.15375,51.63667],[-0.15573,51.63898],[-0.15778,51.64118],[-0.1599,51.64327],[-0.16209,51.64526],[-0.16434,51.64716],[-0.16665,51.64898],[-0.16903,51.65073],[-0.17146,51.65241],[-0.17395,51.65404],[-0.1765,51.65563],[-0.17911,51.65718],[-0.18176,51.6587],[-0.18447,51.6602],[-0.18723,51.66169],[-0.19003,51.66318],[-0.19288,51.66468],[-0.19577,51.6662],[-0.19871,51.66774],[-0.20169,51.66932],[-0.20471,51.67094],[-0.20776,51.67261],[-0.21085,51.67431],[-0.21396,51.67604],[-0.21711,51.67779],[-0.22027,51.67954],[-0.22346,51.68129],[-0.22666,51.68302],[-0.22987,51.68472],[-0.23309,51.68639],[-0.23631,51.68802],[-0.23954,51.68959],[-0.24276,51.69109],[-0.24597,51.69251],[-0.24918,51.69384],[-0.25237,51.69508],[-0.25555,51.69621],[-0.25871,51.69721],[-0.26184,51.69809],[-0.26494,51.69883],[-0.26801,51.69942],[-0.27105,51.69984],[-0.27405,51.7001],[-0.277,51.70017],[-0.27992,51.70005],[-0.28278,51.69973],[-0.28558,51.69919],[-0.28834,51.69843]]]},"properties":{"name":"The London Banana","description":"Approximate polygon of the 'London Banana' as hand-drawn by Saul Sadka (@Saul_Sadka), 24 Aug 2025.","source":"https://x.com/Saul_Sadka/status/1959609109939892706/photo/1","method":"Marker-pen crescent traced from the tweet image, georeferenced against named places on the underlying map, then closed-cubic-spline smoothed.","accuracy":"Indicative only - the original is a freehand loop on a schematic map; the stroke alone is ~1-2 km wide on the ground.","area_km2":424.7,"perimeter_km":112.6}}]}